[{"OBJECT_NAME":"ONEWEB-0567","OBJECT_ID":"2023-004H","EPOCH":"2025-11-04T03:55:35.650848","MEAN_MOTION":13.1868716,"ECCENTRICITY":0.00021719,"INCLINATION":87.9218,"RA_OF_ASC_NODE":20.1812,"ARG_OF_PERICENTER":94.1476,"MEAN_ANOMALY":265.9905,"EPHEMERIS_TYPE":0,"CLASSIFICATION_TYPE":"U","NORAD_CAT_ID":55147,"ELEMENT_SET_NO":999,"REV_AT_EPOCH":14004,"BSTAR":0.00022579373,"MEAN_MOTION_DOT":1.02e-6,"MEAN_MOTION_DDOT":0},{"OBJECT_NAME":"ONEWEB-0569","OBJECT_ID":"2023-004J","EPOCH":"2025-11-04T04:59:34.211904","MEAN_MOTION":13.13472881,"ECCENTRICITY":0.00028461,"INCLINATION":87.903,"RA_OF_ASC_NODE":4.9202,"ARG_OF_PERICENTER":98.5714,"MEAN_ANOMALY":261.5738,"EPHEMERIS_TYPE":0,"CLASSIFICATION_TYPE":"U","NORAD_CAT_ID":55148,"ELEMENT_SET_NO":999,"REV_AT_EPOCH":14064,"BSTAR":-8.438873e-6,"MEAN_MOTION_DOT":1.0e-7,"MEAN_MOTION_DDOT":0},{"OBJECT_NAME":"ONEWEB-0570","OBJECT_ID":"2023-004K","EPOCH":"2025-11-04T05:30:36.458496","MEAN_MOTION":13.18686856,"ECCENTRICITY":0.00017388,"INCLINATION":87.9215,"RA_OF_ASC_NODE":20.168,"ARG_OF_PERICENTER":82.5544,"MEAN_ANOMALY":277.5785,"EPHEMERIS_TYPE":0,"CLASSIFICATION_TYPE":"U","NORAD_CAT_ID":55149,"ELEMENT_SET_NO":999,"REV_AT_EPOCH":14004,"BSTAR":0.0002145569,"MEAN_MOTION_DOT":9.7e-7,"MEAN_MOTION_DDOT":0},{"OBJECT_NAME":"ONEWEB-0571","OBJECT_ID":"2023-004L","EPOCH":"2025-11-04T05:21:05.776992","MEAN_MOTION":13.18688227,"ECCENTRICITY":0.0002969,"INCLINATION":87.9209,"RA_OF_ASC_NODE":20.1712,"ARG_OF_PERICENTER":85.6318,"MEAN_ANOMALY":274.5154,"EPHEMERIS_TYPE":0,"CLASSIFICATION_TYPE":"U","NORAD_CAT_ID":55150,"ELEMENT_SET_NO":999,"REV_AT_EPOCH":14005,"BSTAR":0.00011332144,"MEAN_MOTION_DOT":5.8e-7,"MEAN_MOTION_DDOT":0},{"OBJECT_NAME":"ONEWEB-0572","OBJECT_ID":"2023-004M","EPOCH":"2025-11-04T07:01:25.963968","MEAN_MOTION":13.17650262,"ECCENTRICITY":0.00018231,"INCLINATION":87.9138,"RA_OF_ASC_NODE":50.5871,"ARG_OF_PERICENTER":95.8062,"MEAN_ANOMALY":264.3277,"EPHEMERIS_TYPE":0,"CLASSIFICATION_TYPE":"U","NORAD_CAT_ID":55151,"ELEMENT_SET_NO":999,"REV_AT_EPOCH":13786,"BSTAR":0.00024088251,"MEAN_MOTION_DOT":1.06e-6,"MEAN_MOTION_DDOT":0},{"OBJECT_NAME":"ONEWEB-0573","OBJECT_ID":"2023-004N","EPOCH":"2025-11-04T05:11:36.516768","MEAN_MOTION":13.18687093,"ECCENTRICITY":0.00022847,"INCLINATION":87.9209,"RA_OF_ASC_NODE":20.1792,"ARG_OF_PERICENTER":79.9592,"MEAN_ANOMALY":280.1798,"EPHEMERIS_TYPE":0,"CLASSIFICATION_TYPE":"U","NORAD_CAT_ID":55152,"ELEMENT_SET_NO":999,"REV_AT_EPOCH":14004,"BSTAR":8.0080371e-5,"MEAN_MOTION_DOT":4.4e-7,"MEAN_MOTION_DDOT":0},{"OBJECT_NAME":"ONEWEB-0588","OBJECT_ID":"2023-004P","EPOCH":"2025-11-04T05:02:06.267264","MEAN_MOTION":13.18686585,"ECCENTRICITY":0.00018122,"INCLINATION":87.9219,"RA_OF_ASC_NODE":20.171,"ARG_OF_PERICENTER":86.0792,"MEAN_ANOMALY":274.0547,"EPHEMERIS_TYPE":0,"CLASSIFICATION_TYPE":"U","NORAD_CAT_ID":55153,"ELEMENT_SET_NO":999,"REV_AT_EPOCH":14004,"BSTAR":0.00018693572,"MEAN_MOTION_DOT":8.7e-7,"MEAN_MOTION_DDOT":0},{"OBJECT_NAME":"ONEWEB-0598","OBJECT_ID":"2023-004Q","EPOCH":"2025-11-04T07:31:42.127392","MEAN_MOTION":13.11417728,"ECCENTRICITY":0.00022243,"INCLINATION":87.885,"RA_OF_ASC_NODE":65.8584,"ARG_OF_PERICENTER":96.0996,"MEAN_ANOMALY":264.0385,"EPHEMERIS_TYPE":0,"CLASSIFICATION_TYPE":"U","NORAD_CAT_ID":55154,"ELEMENT_SET_NO":999,"REV_AT_EPOCH":13642,"BSTAR":0.0013738391,"MEAN_MOTION_DOT":5.0e-6,"MEAN_MOTION_DDOT":0},{"OBJECT_NAME":"ONEWEB-0599","OBJECT_ID":"2023-004R","EPOCH":"2025-11-04T00:37:29.167392","MEAN_MOTION":13.17650015,"ECCENTRICITY":0.00018647,"INCLINATION":87.9138,"RA_OF_ASC_NODE":50.643,"ARG_OF_PERICENTER":103.0185,"MEAN_ANOMALY":257.1155,"EPHEMERIS_TYPE":0,"CLASSIFICATION_TYPE":"U","NORAD_CAT_ID":55155,"ELEMENT_SET_NO":999,"REV_AT_EPOCH":13783,"BSTAR":-8.4304336e-5,"MEAN_MOTION_DOT":-2.0e-7,"MEAN_MOTION_DDOT":0},{"OBJECT_NAME":"ONEWEB-0614","OBJECT_ID":"2023-004S","EPOCH":"2025-11-04T07:24:22.525920","MEAN_MOTION":13.11420091,"ECCENTRICITY":0.00014037,"INCLINATION":87.8849,"RA_OF_ASC_NODE":65.8687,"ARG_OF_PERICENTER":92.7989,"MEAN_ANOMALY":267.33,"EPHEMERIS_TYPE":0,"CLASSIFICATION_TYPE":"U","NORAD_CAT_ID":55156,"ELEMENT_SET_NO":999,"REV_AT_EPOCH":13636,"BSTAR":0.0010854126,"MEAN_MOTION_DOT":3.97e-6,"MEAN_MOTION_DDOT":0},{"OBJECT_NAME":"ONEWEB-0616","OBJECT_ID":"2023-004T","EPOCH":"2025-11-04T07:06:17.337600","MEAN_MOTION":13.17650965,"ECCENTRICITY":0.00022936,"INCLINATION":87.9137,"RA_OF_ASC_NODE":50.5799,"ARG_OF_PERICENTER":126.1938,"MEAN_ANOMALY":233.9406,"EPHEMERIS_TYPE":0,"CLASSIFICATION_TYPE":"U","NORAD_CAT_ID":55157,"ELEMENT_SET_NO":999,"REV_AT_EPOCH":13808,"BSTAR":5.6082351e-5,"MEAN_MOTION_DOT":3.5e-7,"MEAN_MOTION_DDOT":0},{"OBJECT_NAME":"ONEWEB-0617","OBJECT_ID":"2023-004U","EPOCH":"2025-11-04T07:07:15.253248","MEAN_MOTION":13.11418181,"ECCENTRICITY":0.00015466,"INCLINATION":87.885,"RA_OF_ASC_NODE":65.8498,"ARG_OF_PERICENTER":87.4522,"MEAN_ANOMALY":272.6783,"EPHEMERIS_TYPE":0,"CLASSIFICATION_TYPE":"U","NORAD_CAT_ID":55158,"ELEMENT_SET_NO":999,"REV_AT_EPOCH":13638,"BSTAR":-0.0011964104,"MEAN_MOTION_DOT":-4.11e-6,"MEAN_MOTION_DDOT":0},{"OBJECT_NAME":"ONEWEB-0618","OBJECT_ID":"2023-004V","EPOCH":"2025-11-03T09:39:57.542976","MEAN_MOTION":15.09719832,"ECCENTRICITY":0.0016367,"INCLINATION":86.9046,"RA_OF_ASC_NODE":269.1485,"ARG_OF_PERICENTER":56.8597,"MEAN_ANOMALY":303.4208,"EPHEMERIS_TYPE":0,"CLASSIFICATION_TYPE":"U","NORAD_CAT_ID":55159,"ELEMENT_SET_NO":999,"REV_AT_EPOCH":14815,"BSTAR":0.00043685958,"MEAN_MOTION_DOT":7.094e-5,"MEAN_MOTION_DDOT":0},{"OBJECT_NAME":"ONEWEB-0619","OBJECT_ID":"2023-004W","EPOCH":"2025-11-04T00:35:03.854688","MEAN_MOTION":13.17649085,"ECCENTRICITY":0.00013196,"INCLINATION":87.913,"RA_OF_ASC_NODE":50.608,"ARG_OF_PERICENTER":112.1205,"MEAN_ANOMALY":248.0067,"EPHEMERIS_TYPE":0,"CLASSIFICATION_TYPE":"U","NORAD_CAT_ID":55160,"ELEMENT_SET_NO":999,"REV_AT_EPOCH":13794,"BSTAR":0.00013918158,"MEAN_MOTION_DOT":6.7e-7,"MEAN_MOTION_DDOT":0},{"OBJECT_NAME":"ONEWEB-0620","OBJECT_ID":"2023-004X","EPOCH":"2025-11-04T06:59:55.663008","MEAN_MOTION":13.11415948,"ECCENTRICITY":0.00017792,"INCLINATION":87.8844,"RA_OF_ASC_NODE":65.8709,"ARG_OF_PERICENTER":94.3057,"MEAN_ANOMALY":265.8274,"EPHEMERIS_TYPE":0,"CLASSIFICATION_TYPE":"U","NORAD_CAT_ID":55161,"ELEMENT_SET_NO":999,"REV_AT_EPOCH":13635,"BSTAR":-0.00087475252,"MEAN_MOTION_DOT":-2.97e-6,"MEAN_MOTION_DDOT":0},{"OBJECT_NAME":"ONEWEB-0621","OBJECT_ID":"2023-004Y","EPOCH":"2025-11-04T07:39:02.116800","MEAN_MOTION":13.11416802,"ECCENTRICITY":0.00014073,"INCLINATION":87.8859,"RA_OF_ASC_NODE":65.8318,"ARG_OF_PERICENTER":100.3238,"MEAN_ANOMALY":259.8048,"EPHEMERIS_TYPE":0,"CLASSIFICATION_TYPE":"U","NORAD_CAT_ID":55162,"ELEMENT_SET_NO":999,"REV_AT_EPOCH":13633,"BSTAR":0.0014905284,"MEAN_MOTION_DOT":5.41e-6,"MEAN_MOTION_DDOT":0},{"OBJECT_NAME":"ONEWEB-0622","OBJECT_ID":"2023-004Z","EPOCH":"2025-11-04T02:16:44.837760","MEAN_MOTION":13.11417641,"ECCENTRICITY":0.00014456,"INCLINATION":87.8845,"RA_OF_ASC_NODE":65.8896,"ARG_OF_PERICENTER":71.5843,"MEAN_ANOMALY":288.5442,"EPHEMERIS_TYPE":0,"CLASSIFICATION_TYPE":"U","NORAD_CAT_ID":55163,"ELEMENT_SET_NO":999,"REV_AT_EPOCH":13629,"BSTAR":0.0013506029,"MEAN_MOTION_DOT":4.91e-6,"MEAN_MOTION_DDOT":0},{"OBJECT_NAME":"ONEWEB-0623","OBJECT_ID":"2023-004AA","EPOCH":"2025-11-04T00:27:45.834336","MEAN_MOTION":13.17651122,"ECCENTRICITY":0.00011008,"INCLINATION":87.9126,"RA_OF_ASC_NODE":50.6616,"ARG_OF_PERICENTER":82.7331,"MEAN_ANOMALY":277.3926,"EPHEMERIS_TYPE":0,"CLASSIFICATION_TYPE":"U","NORAD_CAT_ID":55164,"ELEMENT_SET_NO":999,"REV_AT_EPOCH":13793,"BSTAR":-0.00015619179,"MEAN_MOTION_DOT":-4.8e-7,"MEAN_MOTION_DDOT":0},{"OBJECT_NAME":"ONEWEB-0624","OBJECT_ID":"2023-004AB","EPOCH":"2025-11-04T07:14:01.922496","MEAN_MOTION":13.12918575,"ECCENTRICITY":0.00014683,"INCLINATION":87.8964,"RA_OF_ASC_NODE":35.3067,"ARG_OF_PERICENTER":97.1262,"MEAN_ANOMALY":263.0034,"EPHEMERIS_TYPE":0,"CLASSIFICATION_TYPE":"U","NORAD_CAT_ID":55165,"ELEMENT_SET_NO":999,"REV_AT_EPOCH":13856,"BSTAR":0.00066818334,"MEAN_MOTION_DOT":2.55e-6,"MEAN_MOTION_DDOT":0},{"OBJECT_NAME":"ONEWEB-0625","OBJECT_ID":"2023-004AC","EPOCH":"2025-11-04T07:30:34.105536","MEAN_MOTION":13.17650692,"ECCENTRICITY":0.00017987,"INCLINATION":87.9124,"RA_OF_ASC_NODE":50.5987,"ARG_OF_PERICENTER":105.4377,"MEAN_ANOMALY":254.6953,"EPHEMERIS_TYPE":0,"CLASSIFICATION_TYPE":"U","NORAD_CAT_ID":55166,"ELEMENT_SET_NO":999,"REV_AT_EPOCH":13796,"BSTAR":8.1315118e-5,"MEAN_MOTION_DOT":4.4e-7,"MEAN_MOTION_DDOT":0},{"OBJECT_NAME":"ONEWEB-0626","OBJECT_ID":"2023-004AD","EPOCH":"2025-11-04T07:16:00.612768","MEAN_MOTION":13.1765075,"ECCENTRICITY":0.0002199,"INCLINATION":87.9128,"RA_OF_ASC_NODE":50.6001,"ARG_OF_PERICENTER":95.1319,"MEAN_ANOMALY":265.0064,"EPHEMERIS_TYPE":0,"CLASSIFICATION_TYPE":"U","NORAD_CAT_ID":55167,"ELEMENT_SET_NO":999,"REV_AT_EPOCH":13796,"BSTAR":7.0842911e-5,"MEAN_MOTION_DOT":4.0e-7,"MEAN_MOTION_DDOT":0},{"OBJECT_NAME":"ONEWEB-0627","OBJECT_ID":"2023-004AE","EPOCH":"2025-11-04T06:58:59.089152","MEAN_MOTION":13.17652253,"ECCENTRICITY":0.00013599,"INCLINATION":87.9129,"RA_OF_ASC_NODE":50.6034,"ARG_OF_PERICENTER":85.8074,"MEAN_ANOMALY":274.3213,"EPHEMERIS_TYPE":0,"CLASSIFICATION_TYPE":"U","NORAD_CAT_ID":55168,"ELEMENT_SET_NO":999,"REV_AT_EPOCH":13796,"BSTAR":-4.2014995e-5,"MEAN_MOTION_DOT":-3.0e-8,"MEAN_MOTION_DDOT":0},{"OBJECT_NAME":"ONEWEB-0628","OBJECT_ID":"2023-004AF","EPOCH":"2025-11-04T06:36:59.251392","MEAN_MOTION":13.12443137,"ECCENTRICITY":0.00010293,"INCLINATION":87.8977,"RA_OF_ASC_NODE":35.3291,"ARG_OF_PERICENTER":98.9538,"MEAN_ANOMALY":261.1707,"EPHEMERIS_TYPE":0,"CLASSIFICATION_TYPE":"U","NORAD_CAT_ID":55169,"ELEMENT_SET_NO":999,"REV_AT_EPOCH":13853,"BSTAR":-0.0010751088,"MEAN_MOTION_DOT":-3.74e-6,"MEAN_MOTION_DDOT":0}]
